NORAD_CAT_ID,OBJECT_NAME,OBJECT_TYPE,EPOCH,MEAN_MOTION,ECCENTRICITY,INCLINATION,RA_OF_ASC_NODE,ARG_OF_PERICENTER,MEAN_ANOMALY,BSTAR,MEAN_MOTION_DOT,MEAN_MOTION_DDOT,TLE_LINE0,TLE_LINE1,TLE_LINE2,SEMIMAJOR_AXIS,PERIOD,APOGEE,PERIGEE,DECAYED
53912.0,STARLINK-5059,PAYLOAD,2024-02-22 04:30:13,15.0883503,0.0001693,53.2173,64.938,104.1248,255.9933,4.5934e-05,4.43e-06,0.0,0 STARLINK-5059,1 53912U 22119AC  24053.18766188  .00000443  00000-0  45934-4 0  9994,2 53912  53.2173  64.9380 0001693 104.1248 255.9933 15.08835030 78714,6917.896,95.438,540.932,538.589,0.0
53912.0,STARLINK-5059,PAYLOAD,2024-02-22 07:41:00,15.08836823,0.0001636,53.2176,64.3446,102.0112,258.1064,5.8133e-05,6.37e-06,0.0,0 STARLINK-5059,1 53912U 22119AC  24053.32014099  .00000637  00000-0  58133-4 0  9997,2 53912  53.2176  64.3446 0001636 102.0112 258.1064 15.08836823 79158,6917.89,95.438,540.887,538.623,0.0
53912.0,STARLINK-5059,PAYLOAD,2024-02-23 07:31:47,15.08839222,0.0001784,53.2188,59.8865,108.9331,251.1855,6.477e-05,7.43e-06,0.0,0 STARLINK-5059,1 53912U 22119AC  24054.31374125  .00000743  00000-0  64770-4 0  9998,2 53912  53.2188  59.8865 0001784 108.9331 251.1855 15.08839222 78883,6917.883,95.438,540.982,538.514,0.0
53912.0,STARLINK-5059,PAYLOAD,2024-02-23 17:04:05,15.08844546,0.0001499,53.2178,58.1,100.3117,259.8044,4.1401e-05,3.71e-06,0.0,0 STARLINK-5059,1 53912U 22119AC  24054.71117856  .00000371  00000-0  41401-4 0  9991,2 53912  53.2178  58.1000 0001499 100.3117 259.8044 15.08844546 79360,6917.866,95.437,540.768,538.695,0.0
53912.0,STARLINK-5059,PAYLOAD,2024-02-24 04:11:48,15.08834872,0.0001665,53.2193,56.0197,102.5851,257.5328,3.198e-05,2.21e-06,0.0,0 STARLINK-5059,1 53912U 22119AC  24055.17486702  .00000221  00000-0  31980-4 0  9996,2 53912  53.2193  56.0197 0001665 102.5851 257.5328 15.08834872 79018,6917.896,95.438,540.913,538.609,0.0
53912.0,STARLINK-5059,PAYLOAD,2024-02-24 08:57:57,15.08838597,0.0001686,53.2192,55.1274,102.8819,257.2362,5.8592e-05,6.45e-06,0.0,0 STARLINK-5059,1 53912U 22119AC  24055.37358486  .00000645  00000-0  58592-4 0  9993,2 53912  53.2192  55.1274 0001686 102.8819 257.2362 15.08838597 79465,6917.885,95.438,540.916,538.583,0.0
53912.0,STARLINK-5059,PAYLOAD,2024-02-24 16:54:53,15.08840168,0.0001739,53.2197,53.638,87.3031,272.8161,5.83e-05,6.4e-06,0.0,0 STARLINK-5059,1 53912U 22119AC  24055.70478478  .00000640  00000-0  58300-4 0  9996,2 53912  53.2197  53.6380 0001739  87.3031 272.8161 15.08840168 79516,6917.88,95.438,540.948,538.542,0.0
53912.0,STARLINK-5059,PAYLOAD,2024-02-25 05:37:57,15.08847404,0.0001847,53.2194,51.2614,103.2472,256.8727,9.6957e-05,1.256e-05,0.0,0 STARLINK-5059,1 53912U 22119AC  24056.23469820  .00001256  00000-0  96957-4 0  9990,2 53912  53.2194  51.2614 0001847 103.2472 256.8727 15.08847404 79176,6917.858,95.437,541.0,538.445,0.0
53912.0,STARLINK-5059,PAYLOAD,2024-02-25 07:13:20,15.08849088,0.0001626,53.2185,50.964,93.8813,266.2365,9.7692e-05,1.267e-05,0.0,0 STARLINK-5059,1 53912U 22119AC  24056.30093705  .00001267  00000-0  97692-4 0  9992,2 53912  53.2185  50.9640 0001626  93.8813 266.2365 15.08849088 79600,6917.853,95.437,540.842,538.593,0.0
53912.0,STARLINK-5059,PAYLOAD,2024-02-25 16:45:39,15.08847528,0.0001612,53.2183,49.1798,93.0855,267.0322,8.8805e-05,1.126e-05,0.0,0 STARLINK-5059,1 53912U 22119AC  24056.69837703  .00001126  00000-0  88805-4 0  9998,2 53912  53.2183  49.1798 0001612  93.0855 267.0322 15.08847528 79660,6917.857,95.437,540.838,538.607,0.0
53912.0,STARLINK-5059,PAYLOAD,2024-02-26 03:53:20,15.0887936,0.0001876,53.2184,47.0983,79.9946,280.1258,-0.00046688,-7.719e-05,0.0,0 STARLINK-5059,1 53912U 22119AC  24057.16204626 -.00007719  00000-0 -46688-3 0  9991,2 53912  53.2184  47.0983 0001876  79.9946 280.1258 15.08879360 79315,6917.76,95.435,540.923,538.327,0.0
53912.0,STARLINK-5059,PAYLOAD,2024-02-26 07:04:07,15.088472,0.0001568,53.2185,46.5033,91.9297,268.1875,0.00011015,1.466e-05,0.0,0 STARLINK-5059,1 53912U 22119AC  24057.29453588  .00001466  00000-0  11015-3 0  9995,2 53912  53.2185  46.5033 0001568  91.9297 268.1875 15.08847200 79338,6917.858,95.437,540.808,538.639,0.0
53912.0,STARLINK-5059,PAYLOAD,2024-02-26 22:58:00,15.08828426,0.0001165,53.2202,43.5286,102.2533,257.859,8.7147e-05,1.099e-05,0.0,0 STARLINK-5059,1 53912U 22119AC  24057.95694761  .00001099  00000-0  87147-4 0  9990,2 53912  53.2202  43.5286 0001165 102.2533 257.8590 15.08828426 79852,6917.916,95.438,540.587,538.975,0.0
53912.0,STARLINK-5059,PAYLOAD,2024-02-27 03:44:09,15.08834879,0.0001779,53.2193,42.6379,87.8575,272.2621,-4.6429e-05,-1.027e-05,0.0,0 STARLINK-5059,1 53912U 22119AC  24058.15566970 -.00001027  00000-0 -46429-4 0  9994,2 53912  53.2193  42.6379 0001779  87.8575 272.2621 15.08834879 79461,6917.896,95.438,540.992,538.53,0.0
53912.0,STARLINK-5059,PAYLOAD,2024-02-27 08:30:18,15.08842591,0.0001787,53.22,41.7421,117.4218,242.6956,-6.1126e-05,-1.261e-05,0.0,0 STARLINK-5059,1 53912U 22119AC  24058.35438348 -.00001261  00000-0 -61126-4 0  9994,2 53912  53.2200  41.7421 0001787 117.4218 242.6956 15.08842591 79496,6917.872,95.437,540.974,538.501,0.0
53912.0,STARLINK-5059,PAYLOAD,2024-02-28 05:10:19,15.08847839,0.0001564,53.2187,37.8761,96.1315,263.9856,1.5343e-05,-4.4e-07,0.0,0 STARLINK-5059,1 53912U 22119AC  24059.21549980 -.00000044  00000-0  15343-4 0  9992,2 53912  53.2187  37.8761 0001564  96.1315 263.9856 15.08847839 80045,6917.856,95.437,540.803,538.639,0.0
53912.0,STARLINK-5059,PAYLOAD,2024-02-28 22:39:34,15.0883621,0.0001634,53.2189,34.6048,99.0861,261.0317,9.189e-05,1.175e-05,0.0,0 STARLINK-5059,1 53912U 22119AC  24059.94414626  .00001175  00000-0  91890-4 0  9996,2 53912  53.2189  34.6048 0001634  99.0861 261.0317 15.08836210 80150,6917.892,95.438,540.887,538.627,0.0
53912.0,STARLINK-5059,PAYLOAD,2024-02-29 05:01:06,15.08839467,0.0001539,53.2186,33.4159,97.5033,262.6134,0.00011693,1.573e-05,0.0,0 STARLINK-5059,1 53912U 22119AC  24060.20910453  .00001573  00000-0  11693-3 0  9990,2 53912  53.2186  33.4159 0001539  97.5033 262.6134 15.08839467 79772,6917.882,95.438,540.812,538.682,0.0
53912.0,STARLINK-5059,PAYLOAD,2024-02-29 14:33:25,15.08836766,0.0001452,53.218,31.6312,94.9503,265.1655,6.598e-05,7.62e-06,0.0,0 STARLINK-5059,1 53912U 22119AC  24060.60654781  .00000762  00000-0  65980-4 0  9991,2 53912  53.2180  31.6312 0001452  94.9503 265.1655 15.08836766 80254,6917.89,95.438,540.76,538.751,0.0
53912.0,STARLINK-5059,PAYLOAD,2024-02-29 22:30:22,15.08831567,0.0001578,53.2194,30.1458,98.3403,261.7768,-4.3922e-05,-9.87e-06,0.0,0 STARLINK-5059,1 53912U 22119AC  24060.93775602 -.00000987  00000-0 -43922-4 0  9996,2 53912  53.2194  30.1458 0001578  98.3403 261.7768 15.08831567 80307,6917.906,95.438,540.863,538.68,0.0
53912.0,STARLINK-5059,PAYLOAD,2024-03-01 04:51:54,15.08836035,0.0001592,53.219,28.9588,98.2808,261.8365,-6.9427e-06,-3.98e-06,0.0,0 STARLINK-5059,1 53912U 22119AC  24061.20271297 -.00000398  00000-0 -69427-5 0  9993,2 53912  53.2190  28.9588 0001592  98.2808 261.8365 15.08836035 79921,6917.893,95.438,540.859,538.656,0.0
53912.0,STARLINK-5059,PAYLOAD,2024-03-01 14:24:13,15.08838859,0.0001588,53.2191,27.1745,97.839,262.2783,3.0573e-05,1.99e-06,0.0,0 STARLINK-5059,1 53912U 22119AC  24061.60015115  .00000199  00000-0  30573-4 0  9998,2 53912  53.2191  27.1745 0001588  97.8390 262.2783 15.08838859 80404,6917.884,95.438,540.847,538.65,0.0
53912.0,STARLINK-5059,PAYLOAD,2024-03-02 03:07:17,15.08845253,0.000154,53.2192,24.7955,100.3728,259.7438,0.0001069,1.414e-05,0.0,0 STARLINK-5059,1 53912U 22119AC  24062.13006537  .00001414  00000-0  10690-3 0  9993,2 53912  53.2192  24.7955 0001540 100.3728 259.7438 15.08845253 80060,6917.864,95.437,540.795,538.664,0.0
53912.0,STARLINK-5059,PAYLOAD,2024-03-02 04:42:40,15.0884748,0.0001541,53.2193,24.4982,100.4051,259.7115,0.00012978,1.778e-05,0.0,0 STARLINK-5059,1 53912U 22119AC  24062.19630400  .00001778  00000-0  12978-3 0  9995,2 53912  53.2193  24.4982 0001541 100.4051 259.7115 15.08847480 80492,6917.858,95.437,540.789,538.656,0.0
53912.0,STARLINK-5059,PAYLOAD,2024-03-03 02:58:05,15.08839543,0.000146,53.2188,20.3329,89.3618,270.7541,9.6754e-05,1.252e-05,0.0,0 STARLINK-5059,1 53912U 22119AC  24063.12367119  .00001252  00000-0  96754-4 0  9995,2 53912  53.2188  20.3329 0001460  89.3618 270.7541 15.08839543 80217,6917.882,95.438,540.757,538.737,0.0
53912.0,STARLINK-5059,PAYLOAD,2024-03-03 04:33:28,15.08841438,0.0001448,53.2188,20.0352,86.4171,273.6987,0.00011074,1.475e-05,0.0,0 STARLINK-5059,1 53912U 22119AC  24063.18991013  .00001475  00000-0  11074-3 0  9995,2 53912  53.2188  20.0352 0001448  86.4171 273.6987 15.08841438 80647,6917.876,95.437,540.743,538.739,0.0
53912.0,STARLINK-5059,PAYLOAD,2024-03-03 20:27:19,15.0884871,0.00018,53.2198,17.0647,86.099,274.0207,-2.7589e-05,-7.27e-06,0.0,0 STARLINK-5059,1 53912U 22119AC  24063.85230963 -.00000727  00000-0 -27589-4 0  9999,2 53912  53.2198  17.0647 0001800  86.0990 274.0207 15.08848710 80749,6917.854,95.437,540.964,538.474,0.0
53912.0,STARLINK-5059,PAYLOAD,2024-03-04 04:24:14,15.08858611,0.0001603,53.2189,15.5753,89.1448,270.9727,0.0002801,4.175e-05,0.0,0 STARLINK-5059,1 53912U 22119AC  24064.18349948  .00004175  00000-0  28010-3 0  9998,2 53912  53.2189  15.5753 0001603  89.1448 270.9727 15.08858611 80375,6917.824,95.436,540.797,538.58,0.0
53912.0,STARLINK-5059,PAYLOAD,2024-03-04 05:59:37,15.0886321,0.0001869,53.2201,15.2837,107.1636,252.9561,3.5594e-06,-2.32e-06,0.0,0 STARLINK-5059,1 53912U 22119AC  24064.24973630 -.00000232  00000-0  35594-5 0  9994,2 53912  53.2201  15.2837 0001869 107.1636 252.9561 15.08863210 80809,6917.809,95.436,540.967,538.382,0.0
53912.0,STARLINK-5059,PAYLOAD,2024-03-04 13:56:33,15.08840468,0.0001605,53.2187,13.7922,80.3931,279.7243,2.072e-05,4.2e-07,0.0,0 STARLINK-5059,1 53912U 22119AC  24064.58094635  .00000042  00000-0  20720-4 0  9992,2 53912  53.2187  13.7922 0001605  80.3931 279.7243 15.08840468 80431,6917.879,95.438,540.854,538.634,0.0
